GLOBALSTAR M094         
1 39074U 13005C   25042.59089924 -.00000109  00000+0 -27783-4 0  9993
2 39074  51.9936 204.5201 0000950  77.6304 282.4669 12.62268335556510
GLOBALSTAR M096         
1 39075U 13005D   25042.60414697 -.00000081  00000+0  12740-3 0  9999
2 39075  52.0053 252.8990 0000883  62.5329 297.5628 12.62268243555439
GLOBALSTAR M078         
1 39076U 13005E   25042.33950585 -.00000008  00000+0  53254-3 0  9995
2 39076  51.9899 338.3802 0000490 276.2750  83.8061 12.62272240554027
GLOBALSTAR M095         
1 39077U 13005F   25042.52476193 -.00000083  00000+0  11581-3 0  9995
2 39077  51.9825 335.0787 0000506 358.3149   1.7716 12.62266116553902
GLOBALSTAR M087         
1 52888U 22064A   25042.55548166 -.00000091  00000+0  71668-4 0  9990
2 52888  51.9790 116.3909 0000490 118.3023 241.7893 12.62268461129503
